{
  "type": "FeatureCollection",
  "features": [
    {
      "type": "Feature",
      "properties": {
        "norad_id": 30118,
        "name": "FENGYUN 1C DEB",
        "group": "fengyun-1c-debris",
        "lat": 72.14975527570726,
        "lon": -37.884124989831264,
        "alt_km": 809.5094901136545,
        "timestamp": "2025-12-13T03:42:11.546879+00:00",
        "meta_object_name": "FENGYUN 1C DEB",
        "meta_object_id": "1999-025RX",
        "meta_epoch": "2025-12-12T00:08:07.842048",
        "meta_mean_motion": 14.05122974,
        "meta_eccentricity": 0.0085339,
        "meta_inclination": 98.8034,
        "meta_ra_of_asc_node": 349.7657,
        "meta_arg_of_pericenter": 61.8685,
        "meta_mean_anomaly": 325.1263,
        "meta_ephemeris_type": 0,
        "meta_classification_type": "U",
        "meta_norad_cat_id": 30118,
        "meta_element_set_no": 999,
        "meta_rev_at_epoch": 96921,
        "meta_bstar": 0.00017954,
        "meta_mean_motion_dot": 2.57e-06,
        "meta_mean_motion_ddot": 0,
        "tle_line1": "1 30118U 99025RX  25346.00564632  .00000257  00000+0  17954-3 0  9996",
        "tle_line2": "2 30118  98.8034 349.7657 0085339  61.8685 325.1263 14.05122974969214"
      },
      "geometry": {
        "type": "Point",
        "coordinates": [
          -37.884124989831264,
          72.14975527570726
        ]
      }
    },
    {
      "type": "Feature",
      "properties": {
        "norad_id": 30119,
        "name": "FENGYUN 1C DEB",
        "group": "fengyun-1c-debris",
        "lat": 38.13574763293069,
        "lon": -25.188424495347245,
        "alt_km": 841.2964186567924,
        "timestamp": "2025-12-13T03:42:11.546889+00:00",
        "meta_object_name": "FENGYUN 1C DEB",
        "meta_object_id": "1999-025RY",
        "meta_epoch": "2025-12-11T22:57:09.184320",
        "meta_mean_motion": 14.22229903,
        "meta_eccentricity": 0.0131104,
        "meta_inclination": 97.9216,
        "meta_ra_of_asc_node": 340.0102,
        "meta_arg_of_pericenter": 295.248,
        "meta_mean_anomaly": 91.9712,
        "meta_ephemeris_type": 0,
        "meta_classification_type": "U",
        "meta_norad_cat_id": 30119,
        "meta_element_set_no": 999,
        "meta_rev_at_epoch": 97169,
        "meta_bstar": 0.0025469,
        "meta_mean_motion_dot": 6.136e-05,
        "meta_mean_motion_ddot": 0,
        "tle_line1": "1 30119U 99025RY  25345.95635630  .00006136  00000+0  25469-2 0  9998",
        "tle_line2": "2 30119  97.9216 340.0102 0131104 295.2480  91.9712 14.22229903971695"
      },
      "geometry": {
        "type": "Point",
        "coordinates": [
          -25.188424495347245,
          38.13574763293069
        ]
      }
    },
    {
      "type": "Feature",
      "properties": {
        "norad_id": 30120,
        "name": "FENGYUN 1C DEB",
        "group": "fengyun-1c-debris",
        "lat": 6.032177929113699,
        "lon": 68.11275105719531,
        "alt_km": 843.4357966908065,
        "timestamp": "2025-12-13T03:42:11.546899+00:00",
        "meta_object_name": "FENGYUN 1C DEB",
        "meta_object_id": "1999-025RZ",
        "meta_epoch": "2025-12-12T04:25:23.261664",
        "meta_mean_motion": 14.27596739,
        "meta_eccentricity": 0.00635722,
        "meta_inclination": 98.8517,
        "meta_ra_of_asc_node": 68.0741,
        "meta_arg_of_pericenter": 213.1276,
        "meta_mean_anomaly": 210.4011,
        "meta_ephemeris_type": 0,
        "meta_classification_type": "U",
        "meta_norad_cat_id": 30120,
        "meta_element_set_no": 999,
        "meta_rev_at_epoch": 97363,
        "meta_bstar": 0.003075424,
        "meta_mean_motion_dot": 7.696e-05,
        "meta_mean_motion_ddot": 0,
        "tle_line1": "1 30120U 99025RZ  25346.18429701  .00007696  00000+0  30754-2 0  9991",
        "tle_line2": "2 30120  98.8517  68.0741 0063572 213.1276 210.4011 14.27596739973637"
      },
      "geometry": {
        "type": "Point",
        "coordinates": [
          68.11275105719531,
          6.032177929113699
        ]
      }
    },
    {
      "type": "Feature",
      "properties": {
        "norad_id": 30121,
        "name": "FENGYUN 1C DEB",
        "group": "fengyun-1c-debris",
        "lat": -73.69150044770196,
        "lon": 56.24352426306565,
        "alt_km": 775.7138394824524,
        "timestamp": "2025-12-13T03:42:11.546909+00:00",
        "meta_object_name": "FENGYUN 1C DEB",
        "meta_object_id": "1999-025SA",
        "meta_epoch": "2025-12-12T06:40:47.279136",
        "meta_mean_motion": 14.39988628,
        "meta_eccentricity": 0.00313641,
        "meta_inclination": 102.1659,
        "meta_ra_of_asc_node": 7.5008,
        "meta_arg_of_pericenter": 166.3094,
        "meta_mean_anomaly": 255.5718,
        "meta_ephemeris_type": 0,
        "meta_classification_type": "U",
        "meta_norad_cat_id": 30121,
        "meta_element_set_no": 999,
        "meta_rev_at_epoch": 97533,
        "meta_bstar": 0.0033391686,
        "meta_mean_motion_dot": 0.0001052,
        "meta_mean_motion_ddot": 0,
        "tle_line1": "1 30121U 99025SA  25346.27832499  .00010520  00000+0  33392-2 0  9995",
        "tle_line2": "2 30121 102.1659   7.5008 0031364 166.3094 255.5718 14.39988628975337"
      },
      "geometry": {
        "type": "Point",
        "coordinates": [
          56.24352426306565,
          -73.69150044770196
        ]
      }
    },
    {
      "type": "Feature",
      "properties": {
        "norad_id": 30123,
        "name": "FENGYUN 1C DEB",
        "group": "fengyun-1c-debris",
        "lat": 33.57312957525175,
        "lon": -77.09448424079844,
        "alt_km": 693.5182563253829,
        "timestamp": "2025-12-13T03:42:11.546919+00:00",
        "meta_object_name": "FENGYUN 1C DEB",
        "meta_object_id": "1999-025SC",
        "meta_epoch": "2025-12-12T02:17:13.284960",
        "meta_mean_motion": 14.25963509,
        "meta_eccentricity": 0.02306503,
        "meta_inclination": 96.926,
        "meta_ra_of_asc_node": 286.6941,
        "meta_arg_of_pericenter": 86.7691,
        "meta_mean_anomaly": 275.9853,
        "meta_ephemeris_type": 0,
        "meta_classification_type": "U",
        "meta_norad_cat_id": 30123,
        "meta_element_set_no": 999,
        "meta_rev_at_epoch": 97238,
        "meta_bstar": 0.0023031154,
        "meta_mean_motion_dot": 7.241e-05,
        "meta_mean_motion_ddot": 0,
        "tle_line1": "1 30123U 99025SC  25346.09529265  .00007241  00000+0  23031-2 0  9996",
        "tle_line2": "2 30123  96.9260 286.6941 0230650  86.7691 275.9853 14.25963509972384"
      },
      "geometry": {
        "type": "Point",
        "coordinates": [
          -77.09448424079844,
          33.57312957525175
        ]
      }
    },
    {
      "type": "Feature",
      "properties": {
        "norad_id": 30124,
        "name": "FENGYUN 1C DEB",
        "group": "fengyun-1c-debris",
        "lat": -57.37995083663327,
        "lon": 55.58440735710611,
        "alt_km": 950.9736242629169,
        "timestamp": "2025-12-13T03:42:11.546929+00:00",
        "meta_object_name": "FENGYUN 1C DEB",
        "meta_object_id": "1999-025SD",
        "meta_epoch": "2025-12-12T02:46:04.287360",
        "meta_mean_motion": 14.14226984,
        "meta_eccentricity": 0.01434032,
        "meta_inclination": 99.1316,
        "meta_ra_of_asc_node": 39.9677,
        "meta_arg_of_pericenter": 107.5753,
        "meta_mean_anomaly": 307.7032,
        "meta_ephemeris_type": 0,
        "meta_classification_type": "U",
        "meta_norad_cat_id": 30124,
        "meta_element_set_no": 999,
        "meta_rev_at_epoch": 96906,
        "meta_bstar": 0.0013760087,
        "meta_mean_motion_dot": 2.853e-05,
        "meta_mean_motion_ddot": 0,
        "tle_line1": "1 30124U 99025SD  25346.11532740  .00002853  00000+0  13760-2 0  9994",
        "tle_line2": "2 30124  99.1316  39.9677 0143403 107.5753 307.7032 14.14226984969068"
      },
      "geometry": {
        "type": "Point",
        "coordinates": [
          55.58440735710611,
          -57.37995083663327
        ]
      }
    },
    {
      "type": "Feature",
      "properties": {
        "norad_id": 30125,
        "name": "FENGYUN 1C DEB",
        "group": "fengyun-1c-debris",
        "lat": 66.23041273202607,
        "lon": -73.64636304044302,
        "alt_km": 960.2924823378153,
        "timestamp": "2025-12-13T03:42:11.546939+00:00",
        "meta_object_name": "FENGYUN 1C DEB",
        "meta_object_id": "1999-025SE",
        "meta_epoch": "2025-12-12T05:30:48.487968",
        "meta_mean_motion": 14.22648921,
        "meta_eccentricity": 0.03423184,
        "meta_inclination": 98.7234,
        "meta_ra_of_asc_node": 85.0335,
        "meta_arg_of_pericenter": 345.6636,
        "meta_mean_anomaly": 70.837,
        "meta_ephemeris_type": 0,
        "meta_classification_type": "U",
        "meta_norad_cat_id": 30125,
        "meta_element_set_no": 999,
        "meta_rev_at_epoch": 96914,
        "meta_bstar": 0.0011111946,
        "meta_mean_motion_dot": 4.494e-05,
        "meta_mean_motion_ddot": 0,
        "tle_line1": "1 30125U 99025SE  25346.22972787  .00004494  00000+0  11112-2 0  9998",
        "tle_line2": "2 30125  98.7234  85.0335 0342318 345.6636  70.8370 14.22648921969147"
      },
      "geometry": {
        "type": "Point",
        "coordinates": [
          -73.64636304044302,
          66.23041273202607
        ]
      }
    }
  ]
}